OBJECT_NAME,OBJECT_ID,EPOCH,MEAN_MOTION,ECCENTRICITY,INCLINATION,RA_OF_ASC_NODE,ARG_OF_PERICENTER,MEAN_ANOMALY,EPHEMERIS_TYPE,CLASSIFICATION_TYPE,NORAD_CAT_ID,ELEMENT_SET_NO,REV_AT_EPOCH,BSTAR,MEAN_MOTION_DOT,MEAN_MOTION_DDOT
TRANSPORTER-17 OBJECT AA,2026-156AA,2026-07-23T04:13:17.048064,14.91403403,.00070096,97.7537,104.3643,89.6271,270.5751,0,U,69893,999,236,.2034327E-3,.1977E-4,0
TRANSPORTER-17 OBJECT AB,2026-156AB,2026-07-23T04:10:58.700928,14.91540151,.00073149,97.7549,104.3689,93.8714,266.3342,0,U,69894,999,236,.72660263E-4,.673E-5,0
TRANSPORTER-17 OBJECT AC,2026-156AC,2026-07-23T04:10:44.620320,14.91556673,.00079385,97.7515,104.3605,91.3372,268.8756,0,U,69895,999,236,.81845803E-4,.765E-5,0
TRANSPORTER-17 OBJECT AD,2026-156AD,2026-07-23T04:03:55.087776,14.92009774,.00092009,97.7528,104.3703,101.3036,258.9217,0,U,69896,999,236,.124575E-3,.1208E-4,0
TRANSPORTER-17 OBJECT AE,2026-156AE,2026-07-23T04:23:22.163424,14.90735632,.00036697,97.7568,104.3591,95.2261,264.9376,0,U,69897,999,236,.13871381E-3,.1307E-4,0
TRANSPORTER-17 OBJECT AF,2026-156AF,2026-07-23T04:12:04.388256,14.91468372,.00071189,97.7547,104.3668,92.3482,267.8551,0,U,69898,999,236,.73251068E-4,.677E-5,0
TRANSPORTER-17 OBJECT AG,2026-156AG,2026-07-22T18:36:40.172544,14.91183543,.00067154,97.7511,103.9598,82.6728,277.5253,0,U,69899,999,230,.66622357E-4,.606E-5,0
TRANSPORTER-17 OBJECT AH,2026-156AH,2026-07-23T04:16:37.401024,14.91181428,.00060724,97.7560,104.3663,86.1449,274.0464,0,U,69900,999,236,.22614615E-3,.2191E-4,0
TRANSPORTER-17 OBJECT AJ,2026-156AJ,2026-07-23T04:17:56.078592,14.91084601,.00062188,97.7525,104.3568,80.3327,279.8593,0,U,69901,999,236,.76800535E-4,.706E-5,0
TRANSPORTER-17 OBJECT AK,2026-156AK,2026-07-23T04:19:12.439776,14.91008755,.00057918,97.7491,104.3497,77.9418,282.2449,0,U,69902,999,236,.15056009E-3,.1434E-4,0
TRANSPORTER-17 OBJECT AL,2026-156AL,2026-07-23T04:19:25.049856,14.90993840,.00050396,97.7575,104.3651,86.7122,273.4673,0,U,69903,999,236,.14934717E-3,.1421E-4,0
TRANSPORTER-17 OBJECT AM,2026-156AM,2026-07-23T04:10:19.092576,14.91587235,.00078051,97.7510,104.3598,92.9816,267.2296,0,U,69904,999,225,.1050227E-3,.998E-5,0
TRANSPORTER-17 OBJECT AN,2026-156AN,2026-07-23T04:18:49.021920,14.91049300,.00052804,97.7562,104.3646,85.1517,275.0304,0,U,69905,999,236,.31980313E-3,.3111E-4,0
TRANSPORTER-17 OBJECT AP,2026-156AP,2026-07-23T04:19:59.863872,14.90951464,.00055974,97.7474,104.3462,74.8300,285.3538,0,U,69906,999,236,.98539454E-4,.918E-5,0
TRANSPORTER-17 OBJECT AQ,2026-156AQ,2026-07-23T04:20:09.196800,14.90936810,.00052325,97.7498,104.3503,79.1088,281.0718,0,U,69907,999,236,.55495161E-4,.493E-5,0
TRANSPORTER-17 OBJECT AR,2026-156AR,2026-07-23T04:12:03.124224,14.91476182,.00075706,97.7518,104.3604,89.3915,270.8171,0,U,69908,999,236,.12340967E-3,.1179E-4,0
TRANSPORTER-17 OBJECT AS,2026-156AS,2026-07-23T04:13:09.212448,14.91400106,.00070591,97.7537,104.3637,89.3032,270.8996,0,U,69909,999,236,.90410135E-4,.847E-5,0
TRANSPORTER-17 OBJECT AT,2026-156AT,2026-07-23T04:19:56.114112,14.90978368,.00049083,97.7544,104.3594,87.9972,272.1809,0,U,69910,999,236,.30073252E-3,.2917E-4,0
TRANSPORTER-17 OBJECT AU,2026-156AU,2026-07-22T21:57:12.396384,14.90700927,.00037229,97.7537,104.0901,85.3985,274.7658,0,U,69911,999,232,.10652636E-3,.99E-5,0
TRANSPORTER-17 OBJECT AV,2026-156AV,2026-07-22T21:55:31.352448,14.90815713,.00041823,97.7554,104.0943,88.1438,272.0259,0,U,69912,999,232,.13367668E-3,.126E-4,0
TRANSPORTER-17 OBJECT AW,2026-156AW,2026-07-23T04:20:49.771104,14.90899881,.00043692,97.7580,104.3637,95.6166,264.5550,0,U,69913,999,236,.12082906E-3,.1136E-4,0
TRANSPORTER-17 OBJECT AX,2026-156AX,2026-07-23T04:23:08.260800,14.90746577,.00044425,97.7558,104.3589,74.2966,285.8742,0,U,69914,999,236,.1004568E-3,.932E-5,0
TRANSPORTER-17 OBJECT AY,2026-156AY,2026-07-23T04:08:27.949344,14.91710999,.0008381,97.7511,104.3618,95.2583,264.9592,0,U,69915,999,236,.1191229E-3,.1144E-4,0
TRANSPORTER-17 OBJECT AZ,2026-156AZ,2026-07-22T23:31:23.425536,14.90876490,.00045532,97.7513,104.1550,83.5426,276.6310,0,U,69916,999,233,.23086852E-3,.222E-4,0
TRANSPORTER-17 OBJECT BA,2026-156BA,2026-07-22T19:53:26.383776,14.92521525,.00112212,97.7572,104.0553,108.1070,252.1372,0,U,69917,999,231,.1459634E-3,.1444E-4,0
TRANSPORTER-17 OBJECT BB,2026-156BB,2026-07-23T04:07:54.735456,14.91740939,.00079061,97.7551,104.3719,99.1602,261.0512,0,U,69918,999,236,.70346193E-4,.653E-5,0
TRANSPORTER-17 OBJECT BC,2026-156BC,2026-07-23T04:05:56.980032,14.91869656,.00087329,97.7518,104.3663,98.9074,261.3134,0,U,69919,999,236,.69572857E-4,.647E-5,0
TRANSPORTER-17 OBJECT BD,2026-156BD,2026-07-23T04:04:35.230080,14.91972721,.00091271,97.7522,104.3686,99.3632,260.8619,0,U,69920,999,236,.17865883E-3,.1755E-4,0
TRANSPORTER-17 OBJECT BE,2026-156BE,2026-07-23T04:05:33.449856,14.91917726,.00083867,97.7546,104.3736,101.9198,258.2961,0,U,69921,999,236,.31047908E-3,.3087E-4,0
