TRANSPORTER-17 OBJECT AA
1 69893U 26156AA  26204.17589176  .00001977  00000+0  20343-3 0  9991
2 69893  97.7537 104.3643 0007009  89.6271 270.5751 14.91403403  2362
TRANSPORTER-17 OBJECT AB
1 69894U 26156AB  26204.17429052  .00000673  00000+0  72660-4 0  9990
2 69894  97.7549 104.3689 0007314  93.8714 266.3342 14.91540151  2365
TRANSPORTER-17 OBJECT AC
1 69895U 26156AC  26204.17412755  .00000765  00000+0  81846-4 0  9991
2 69895  97.7515 104.3605 0007938  91.3372 268.8756 14.91556673  2364
TRANSPORTER-17 OBJECT AD
1 69896U 26156AD  26204.16938759  .00001208  00000+0  12458-3 0  9993
2 69896  97.7528 104.3703 0009200 101.3036 258.9217 14.92009774  2369
TRANSPORTER-17 OBJECT AE
1 69897U 26156AE  26204.18289541  .00001307  00000+0  13871-3 0  9994
2 69897  97.7568 104.3591 0003669  95.2261 264.9376 14.90735632  2363
TRANSPORTER-17 OBJECT AF
1 69898U 26156AF  26204.17505079  .00000677  00000+0  73251-4 0  9999
2 69898  97.7547 104.3668 0007118  92.3482 267.8551 14.91468372  2364
TRANSPORTER-17 OBJECT AG
1 69899U 26156AG  26203.77546496  .00000606  00000+0  66622-4 0  9999
2 69899  97.7511 103.9598 0006715  82.6728 277.5253 14.91183543  2305
TRANSPORTER-17 OBJECT AH
1 69900U 26156AH  26204.17821066  .00002191  00000+0  22615-3 0  9990
2 69900  97.7560 104.3663 0006072  86.1449 274.0464 14.91181428  2367
TRANSPORTER-17 OBJECT AJ
1 69901U 26156AJ  26204.17912128  .00000706  00000+0  76801-4 0  9998
2 69901  97.7525 104.3568 0006218  80.3327 279.8593 14.91084601  2367
TRANSPORTER-17 OBJECT AK
1 69902U 26156AK  26204.18000509  .00001434  00000+0  15056-3 0  9994
2 69902  97.7491 104.3497 0005791  77.9418 282.2449 14.91008755  2363
TRANSPORTER-17 OBJECT AL
1 69903U 26156AL  26204.18015104  .00001421  00000+0  14935-3 0  9993
2 69903  97.7575 104.3651 0005039  86.7122 273.4673 14.90993840  2362
TRANSPORTER-17 OBJECT AM
1 69904U 26156AM  26204.17383209  .00000998  00000+0  10502-3 0  9991
2 69904  97.7510 104.3598 0007805  92.9816 267.2296 14.91587235  2252
TRANSPORTER-17 OBJECT AN
1 69905U 26156AN  26204.17973405  .00003111  00000+0  31980-3 0  9998
2 69905  97.7562 104.3646 0005280  85.1517 275.0304 14.91049300  2366
TRANSPORTER-17 OBJECT AP
1 69906U 26156AP  26204.18055398  .00000918  00000+0  98539-4 0  9998
2 69906  97.7474 104.3462 0005597  74.8300 285.3538 14.90951464  2366
TRANSPORTER-17 OBJECT AQ
1 69907U 26156AQ  26204.18066200  .00000493  00000+0  55495-4 0  9995
2 69907  97.7498 104.3503 0005232  79.1088 281.0718 14.90936810  2367
TRANSPORTER-17 OBJECT AR
1 69908U 26156AR  26204.17503616  .00001179  00000+0  12341-3 0  9996
2 69908  97.7518 104.3604 0007570  89.3915 270.8171 14.91476182  2363
TRANSPORTER-17 OBJECT AS
1 69909U 26156AS  26204.17580107  .00000847  00000+0  90410-4 0  9992
2 69909  97.7537 104.3637 0007059  89.3032 270.8996 14.91400106  2361
TRANSPORTER-17 OBJECT AT
1 69910U 26156AT  26204.18051058  .00002917  00000+0  30073-3 0  9991
2 69910  97.7544 104.3594 0004908  87.9972 272.1809 14.90978368  2367
TRANSPORTER-17 OBJECT AU
1 69911U 26156AU  26203.91472681  .00000990  00000+0  10653-3 0  9992
2 69911  97.7537 104.0901 0003722  85.3985 274.7658 14.90700927  2328
TRANSPORTER-17 OBJECT AV
1 69912U 26156AV  26203.91355732  .00001260  00000+0  13368-3 0  9997
2 69912  97.7554 104.0943 0004182  88.1438 272.0259 14.90815713  2327
TRANSPORTER-17 OBJECT AW
1 69913U 26156AW  26204.18113161  .00001136  00000+0  12083-3 0  9991
2 69913  97.7580 104.3637 0004369  95.6166 264.5550 14.90899881  2360
TRANSPORTER-17 OBJECT AX
1 69914U 26156AX  26204.18273450  .00000932  00000+0  10046-3 0  9990
2 69914  97.7558 104.3589 0004442  74.2966 285.8742 14.90746577  2367
TRANSPORTER-17 OBJECT AY
1 69915U 26156AY  26204.17254571  .00001144  00000+0  11912-3 0  9992
2 69915  97.7511 104.3618 0008381  95.2583 264.9592 14.91710999  2365
TRANSPORTER-17 OBJECT AZ
1 69916U 26156AZ  26203.98013224  .00002220  00000+0  23087-3 0  9991
2 69916  97.7513 104.1550 0004553  83.5426 276.6310 14.90876490  2337
TRANSPORTER-17 OBJECT BA
1 69917U 26156BA  26203.82877759  .00001444  00000+0  14596-3 0  9998
2 69917  97.7572 104.0553 0011221 108.1070 252.1372 14.92521525  2317
TRANSPORTER-17 OBJECT BB
1 69918U 26156BB  26204.17216129  .00000653  00000+0  70346-4 0  9993
2 69918  97.7551 104.3719 0007906  99.1602 261.0512 14.91740939  2368
TRANSPORTER-17 OBJECT BC
1 69919U 26156BC  26204.17079838  .00000647  00000+0  69573-4 0  9991
2 69919  97.7518 104.3663 0008732  98.9074 261.3134 14.91869656  2369
TRANSPORTER-17 OBJECT BD
1 69920U 26156BD  26204.16985220  .00001755  00000+0  17866-3 0  9991
2 69920  97.7522 104.3686 0009127  99.3632 260.8619 14.91972721  2365
TRANSPORTER-17 OBJECT BE
1 69921U 26156BE  26204.17052604  .00003087  00000+0  31048-3 0  9992
2 69921  97.7546 104.3736 0008386 101.9198 258.2961 14.91917726  2366
